COSMOS 2516 [GLONASS-M] 
1 41554U 16032A   22231.49604829  .00000082  00000+0  00000+0 0  9991
2 41554  63.9090 239.2565 0015040 216.4641 154.3290  2.13106426 48443
COSMOS 2522 [GLONASS-M] 
1 42939U 17055A   22231.36366803  .00000081  00000+0  00000+0 0  9997
2 42939  64.1421 239.6745 0010147 243.7924 241.1845  2.13101990 38199
COSMOS 2527 [GLONASS-M] 
1 43508U 18053A   22231.39775883 -.00000039  00000+0  00000+0 0  9998
2 43508  64.9803 120.7284 0007723 230.2017 313.0209  2.13102579 32485
COSMOS 2529 [GLONASS-M] 
1 43687U 18086A   22231.38291429  .00000081  00000+0  00000+0 0  9996
2 43687  64.3571 240.0073 0011925 262.8423 192.4310  2.13102141 29508
COSMOS 2534 [GLONASS-M] 
1 44299U 19030A   22231.07688264  .00000078  00000+0  00000+0 0  9995
2 44299  64.4299 239.9080 0014146 281.1768  73.8522  2.13101968 25133
COSMOS 2544 [GLONASS-M] 
1 44850U 19088A   22231.33830814 -.00000038  00000+0  16595+1 0  9994
2 44850  64.9665 120.5816 0012176 259.5590 281.4708  2.13102358 20911
COSMOS 2545 [GLONASS-M] 
1 45358U 20018A   22231.30791610 -.00000086  00000+0  00000+0 0  9996
2 45358  64.9156   1.1258 0007737 233.6871 133.4306  2.13102762 18877
COSMOS 2547 [GLONASS-K] 
1 46805U 20075A   22230.75003088  .00000076  00000+0  00000+0 0  9998
2 46805  64.6542 239.3624 0008710 245.7850 266.4011  2.13103028 14104
COSMOS 2557 [GLONASS-K] 
1 52984U 22075A   22231.57601117 -.00000084  00000+0  10000-3 0  9998
2 52984  64.8183   3.3186 0010512 279.7020  24.2395  2.13101717   915
